NORAD_CAT_ID,OBJECT_NAME,OBJECT_TYPE,EPOCH,MEAN_MOTION,ECCENTRICITY,INCLINATION,RA_OF_ASC_NODE,ARG_OF_PERICENTER,MEAN_ANOMALY,BSTAR,MEAN_MOTION_DOT,MEAN_MOTION_DDOT,TLE_LINE0,TLE_LINE1,TLE_LINE2,SEMIMAJOR_AXIS,PERIOD,APOGEE,PERIGEE,DECAYED
53837.0,STARLINK-4776,PAYLOAD,2022-10-04 14:00:01,15.73186635,9.03e-05,53.2155,181.8805,108.5263,77.6032,-2.2356e-05,-3.753e-05,0.0,0 STARLINK-4776,1 53837U 22114V   22277.58334491 -.00003753  00000-0 -22356-4 0  9995,2 53837  53.2155 181.8805 0000903 108.5263  77.6032 15.73186635  1301,6727.933000000001,91.534,350.406,349.191,0.0
53837.0,STARLINK-4776,PAYLOAD,2022-10-04 22:00:00,15.73213579,9.34e-05,53.2158,180.2323,101.364,173.6559,-0.00012617,-0.00018298,0.0,0 STARLINK-4776,1 53837U 22114V   22277.91667824 -.00018298  00000-0 -12617-3 0  9999,2 53837  53.2158 180.2323 0000934 101.3640 173.6559 15.73213579  3071,6727.856,91.532,350.35,349.093,0.0
53837.0,STARLINK-4776,PAYLOAD,2022-10-05 14:00:01,15.73117354,0.0001176,53.2155,176.9323,108.5716,344.3452,0.00017455,0.0002386,0.0,0 STARLINK-4776,1 53837U 22114V   22278.58335648  .00023860  00000-0  17455-3 0  9993,2 53837  53.2155 176.9323 0001176 108.5716 344.3452 15.73117354  3187,6728.130999999999,91.538,350.787,349.205,0.0
53837.0,STARLINK-4776,PAYLOAD,2022-10-05 22:00:00,15.73115926,0.0001213,53.2157,175.2843,102.6587,79.0362,0.00025753,0.00035546,0.0,0 STARLINK-4776,1 53837U 22114V   22278.91667824  .00035546  00000-0  25753-3 0  9998,2 53837  53.2157 175.2843 0001213 102.6587  79.0362 15.73115926  1308,6728.135,91.538,350.816,349.184,0.0
53837.0,STARLINK-4776,PAYLOAD,2022-10-06 14:00:01,15.73210604,0.0001088,53.216,171.9842,114.8129,244.6402,0.00020561,0.00028346,0.0,0 STARLINK-4776,1 53837U 22114V   22279.58334491  .00028346  00000-0  20561-3 0  9995,2 53837  53.2160 171.9842 0001088 114.8129 244.6402 15.73210604  1305,6727.865,91.533,350.462,348.99800000000016,0.0
53837.0,STARLINK-4776,PAYLOAD,2022-10-06 22:42:55,15.73245453,0.000113,53.2162,170.1892,101.7566,155.477,-0.00036279,-0.00051323,0.0,0 STARLINK-4776,1 53837U 22114V   22279.94646991 -.00051323  00000-0 -36279-3 0  9992,2 53837  53.2162 170.1892 0001130 101.7566 155.4770 15.73245453  1308,6727.766,91.531,350.391,348.87,0.0
53837.0,STARLINK-4776,PAYLOAD,2022-10-07 00:00:00,15.73230985,0.0001147999999999,53.2165,169.9247,97.6716,102.981,-0.00018669,-0.00026771,0.0,0 STARLINK-4776,1 53837U 22114V   22280.00001157 -.00026771  00000-0 -18669-3 0  9992,2 53837  53.2165 169.9247 0001148  97.6716 102.9810 15.73230985  3409,6727.807,91.531,350.444,348.899,0.0
53837.0,STARLINK-4776,PAYLOAD,2022-10-07 14:00:01,15.73169089,0.0001328,53.2167,167.0364,102.6547,163.6652,0.00038437,0.00053597,0.0,0 STARLINK-4776,1 53837U 22114V   22280.58334491  .00053597  00000-0  38437-3 0  9994,2 53837  53.2167 167.0364 0001328 102.6547 163.6652 15.73169089  1300,6727.983,91.535,350.742,348.955,0.0
53837.0,STARLINK-4776,PAYLOAD,2022-10-07 22:00:00,15.73223975,0.0001207,53.2158,165.3879,106.1261,249.195,2.3008e-05,2.613e-05,0.0,0 STARLINK-4776,1 53837U 22114V   22280.91667824  .00002613  00000-0  23008-4 0  9992,2 53837  53.2158 165.3879 0001207 106.1261 249.1950 15.73223975  3544,6727.8269999999975,91.532,350.504,348.88,0.0
53837.0,STARLINK-4776,PAYLOAD,2022-10-08 14:00:01,15.73154211,0.0001293,53.2158,162.0871,112.0611,61.1342,9.3184e-05,0.00012452,0.0,0 STARLINK-4776,1 53837U 22114V   22281.58334491  .00012452  00000-0  93184-4 0  9991,2 53837  53.2158 162.0871 0001293 112.0611  61.1342 15.73154211  1305,6728.026,91.536,350.761,349.021,0.0
53837.0,STARLINK-4776,PAYLOAD,2022-10-08 22:00:00,15.73106857,0.0001223,53.2174,160.4399,120.0933,141.9932,0.0010960999999999,0.00155466,0.0,0 STARLINK-4776,1 53837U 22114V   22281.91667824  .00155466  00000-0  10961-2 0  9990,2 53837  53.2174 160.4399 0001223 120.0933 141.9932 15.73106857  1304,6728.161,91.539,350.849,349.20300000000015,0.0
53837.0,STARLINK-4776,PAYLOAD,2022-10-09 06:00:00,15.73235023,0.0001193999999999,53.2155,158.7899,101.919,249.1236,-0.00024566,-0.00035005,0.0,0 STARLINK-4776,1 53837U 22114V   22282.25001157 -.00035005  00000-0 -24566-3 0  9994,2 53837  53.2155 158.7899 0001194 101.9190 249.1236 15.73235023  3755,6727.795,91.531,350.464,348.857,0.0
53837.0,STARLINK-4776,PAYLOAD,2022-10-09 14:00:01,15.7319527,0.0001376999999999,53.2154,157.1388,112.7841,327.2249,0.00034696,0.00048344,0.0,0 STARLINK-4776,1 53837U 22114V   22282.58334491  .00048344  00000-0  34696-3 0  9993,2 53837  53.2154 157.1388 0001377 112.7841 327.2249 15.73195270  1306,6727.909000000002,91.533,350.7,348.847,0.0
53837.0,STARLINK-4776,PAYLOAD,2022-10-09 22:00:00,15.73226815,0.0001382,53.2154,155.4913,104.0244,64.9314,-0.00023113,-0.00032968,0.0,0 STARLINK-4776,1 53837U 22114V   22282.91667824 -.00032968  00000-0 -23113-3 0  9998,2 53837  53.2154 155.4913 0001382 104.0244  64.9314 15.73226815  3869,6727.819,91.532,350.61400000000015,348.754,0.0
53837.0,STARLINK-4776,PAYLOAD,2022-10-10 14:00:01,15.73229565,0.0001351999999999,53.2152,152.1898,118.1015,228.782,0.00012235,0.00016606,0.0,0 STARLINK-4776,1 53837U 22114V   22283.58334491  .00016606  00000-0  12235-3 0  9995,2 53837  53.2152 152.1898 0001352 118.1015 228.7820 15.73229565  1306,6727.811,91.531,350.585,348.766,0.0
53837.0,STARLINK-4776,PAYLOAD,2022-10-10 22:00:01,15.7337803,0.0001179,53.2168,150.5424,110.5558,325.3488,-0.0045813,-0.00604006,0.0,0 STARLINK-4776,1 53837U 22114V   22283.91668981 -.00604006  00000-0 -45813-2 0  9992,2 53837  53.2168 150.5424 0001179 110.5558 325.3488 15.73378030  4023,6727.388000000001,91.523,350.046,348.459,0.0
53837.0,STARLINK-4776,PAYLOAD,2022-10-11 06:00:00,15.73217342,0.0001001,53.2156,148.8928,102.9903,61.6687,-0.00088018,-0.00122451,0.0,0 STARLINK-4776,1 53837U 22114V   22284.25001157 -.00122451  00000-0 -88018-3 0  9990,2 53837  53.2156 148.8928 0001001 102.9903  61.6687 15.73217342  4076,6727.846,91.532,350.384,349.037,0.0
53837.0,STARLINK-4776,PAYLOAD,2022-10-11 14:00:01,15.73101674,0.0001639,53.217,147.24200000000005,103.9981,149.5656,0.0011599,0.0016469999999999,0.0,0 STARLINK-4776,1 53837U 22114V   22284.58334491  .00164700  00000-0  11599-2 0  9996,2 53837  53.2170 147.2420 0001639 103.9981 149.5656 15.73101674  4124,6728.176,91.539,351.14300000000014,348.93800000000016,0.0
53837.0,STARLINK-4776,PAYLOAD,2022-10-11 22:00:00,15.73147652,0.0001217999999999,53.2143,145.5942,106.6053,235.7589,0.00051719,0.00072429,0.0,0 STARLINK-4776,1 53837U 22114V   22284.91667824  .00072429  00000-0  51719-3 0  9997,2 53837  53.2143 145.5942 0001218 106.6053 235.7589 15.73147652  4171,6728.044,91.536,350.72900000000016,349.09,0.0
53837.0,STARLINK-4776,PAYLOAD,2022-10-12 06:00:00,15.73243464,0.0001141,53.2154,143.9448,105.6416,325.6425,0.00025695,0.00035661,0.0,0 STARLINK-4776,1 53837U 22114V   22285.25001157  .00035661  00000-0  25695-3 0  9997,2 53837  53.2154 143.9448 0001141 105.6416 325.6425 15.73243464  4225,6727.771,91.531,350.404,348.869,0.0
53837.0,STARLINK-4776,PAYLOAD,2022-10-12 14:00:01,15.73262581,0.0001255,53.2166,142.2934,113.1523,47.1325,-0.00063442,-0.00088957,0.0,0 STARLINK-4776,1 53837U 22114V   22285.58334491 -.00088957  00000-0 -63442-3 0  9993,2 53837  53.2166 142.2934 0001255 113.1523  47.1325 15.73262581  4281,6727.717,91.53,350.426,348.737,0.0
53837.0,STARLINK-4776,PAYLOAD,2022-10-12 22:00:00,15.73204205,0.0001246,53.2175,140.64600000000002,107.7924,141.4562,-7.040100000000002e-07,-7.19e-06,0.0,0 STARLINK-4776,1 53837U 22114V   22285.91667824 -.00000719  00000-0 -70401-6 0  9995,2 53837  53.2175 140.6460 0001246 107.7924 141.4562 15.73204205  1301,6727.8830000000025,91.533,350.586,348.91,0.0
53837.0,STARLINK-4776,PAYLOAD,2022-10-13 06:00:00,15.73205306,0.0001220999999999,53.2174,138.9955,109.0775,229.1056,-1.4177e-05,-2.609e-05,0.0,0 STARLINK-4776,1 53837U 22114V   22286.25001157 -.00002609  00000-0 -14177-4 0  9990,2 53837  53.2174 138.9955 0001221 109.0775 229.1056 15.73205306  4387,6727.88,91.533,350.56699999999995,348.9240000000001,0.0
53837.0,STARLINK-4776,PAYLOAD,2022-10-13 14:00:01,15.73386852,0.0001277,53.2166,137.3447,107.9352,319.0782,-0.0018713,-0.00257423,0.0,0 STARLINK-4776,1 53837U 22114V   22286.58334491 -.00257423  00000-0 -18713-2 0  9990,2 53837  53.2166 137.3447 0001277 107.9352 319.0782 15.73386852  1306,6727.363,91.522,350.087,348.36800000000005,0.0
53837.0,STARLINK-4776,PAYLOAD,2022-10-13 22:00:00,15.73205006,0.0001322,53.2174,135.6974,102.3864,53.6645,-6.7133000000000014e-06,-1.562e-05,0.0,0 STARLINK-4776,1 53837U 22114V   22286.91667824 -.00001562  00000-0 -67133-5 0  9990,2 53837  53.2174 135.6974 0001322 102.3864  53.6645 15.73205006  1309,6727.880999999999,91.533,350.635,348.856,0.0
53837.0,STARLINK-4776,PAYLOAD,2022-10-14 08:00:01,15.73278395,0.000149,53.2163,133.6329,112.6751,244.8519,-0.0036317,-0.0048371,0.0,0 STARLINK-4776,1 53837U 22114V   22287.33335648 -.00483710  00000-0 -36317-2 0  9999,2 53837  53.2163 133.6329 0001490 112.6751 244.8519 15.73278395  4559,6727.672,91.529,350.539,348.534,0.0
53837.0,STARLINK-4776,PAYLOAD,2022-10-14 14:00:01,15.72858549,0.0001751,53.2164,132.3947,96.698,237.4029,0.0038358,0.00567403,0.0,0 STARLINK-4776,1 53837U 22114V   22287.58334491  .00567403  00000-0  38358-2 0  9998,2 53837  53.2164 132.3947 0001751  96.6980 237.4029 15.72858549  1305,6728.869000000002,91.553,351.912,349.556,0.0
53837.0,STARLINK-4776,PAYLOAD,2022-10-14 16:00:00,15.7316224,0.0001766999999999,53.217,131.9839,101.3863,344.7862,0.00051141,0.00071652,0.0,0 STARLINK-4776,1 53837U 22114V   22287.66667824  .00071652  00000-0  51141-3 0  9998,2 53837  53.2170 131.9839 0001767 101.3863 344.7862 15.73162240  4619,6728.003000000002,91.535,351.057,348.67900000000014,0.0
53837.0,STARLINK-4776,PAYLOAD,2022-10-14 18:00:00,15.73205528,0.0001633,53.2174,131.5726,101.2035,97.183,-4.5635e-06,-1.261e-05,0.0,0 STARLINK-4776,1 53837U 22114V   22287.75001157 -.00001261  00000-0 -45635-5 0  9993,2 53837  53.2174 131.5726 0001633 101.2035  97.1830 15.73205528  1300,6727.879,91.533,350.843,348.646,0.0
